H1 CPF 01  gfz 2022 05 14 12  6342 tandemx   
H2 1003001  6202 36605    2022 05 14 12 59 42 2022 05 19 00 00 42   120 1 1  0 0 0
H9
10 0 59717  32382.000000  0    1155883.972  -2311593.544  -6392620.705
10 0 59717  32502.000000  0     496194.979  -1729697.922  -6656464.886
10 0 59717  32622.000000  0    -161539.094  -1106319.304  -6804207.160
10 0 59717  32742.000000  0    -805297.862   -452398.937  -6833308.600
10 0 59717  32862.000000  0   -1423504.384    220395.922  -6743269.991
10 0 59717  32982.000000  0   -2005228.659    899874.850  -6535638.887
10 0 59717  33102.000000  0   -2540376.195   1573539.375  -6213985.880
10 0 59717  33222.000000  0   -3019860.033   2228807.049  -5783850.113
10 0 59717  33342.000000  0   -3435754.988   2853242.394  -5252654.845
10 0 59717  33462.000000  0   -3781431.926   3434791.784  -4629591.470
10 0 59717  33582.000000  0   -4051668.771   3962017.144  -3925470.923
10 0 59717  33702.000000  0   -4242733.937   4424323.586  -3152544.984
10 0 59717  33822.000000  0   -4352441.652   4812176.960  -2324300.939
10 0 59717  33942.000000  0   -4380178.617   5117305.493  -1455230.304
10 0 59717  34062.000000  0   -4326900.108   5332881.621   -560575.903
10 0 59717  34182.000000  0   -4195093.636   5453678.403    343940.610
10 0 59717  34302.000000  0   -3988710.687   5476193.817   1242401.469
10 0 59717  34422.000000  0   -3713069.309   5398742.975   2118982.521
10 0 59717  34542.000000  0   -3374727.937   5221511.408   2958242.559
10 0 59717  34662.000000  0   -2981333.337   4946569.885   3745403.031
10 0 59717  34782.000000  0   -2541449.546   4577852.030   4466613.012
10 0 59717  34902.000000  0   -2064370.976   4121094.665   5109195.950
10 0 59717  35022.000000  0   -1559924.728   3583742.146   5661872.689
10 0 59717  35142.000000  0   -1038266.066   2974817.442   6114956.560
10 0 59717  35262.000000  0    -509672.796   2304763.327   6460517.492
10 0 59717  35382.000000  0      15656.712   1585258.476   6692513.955
10 0 59717  35502.000000  0     527799.767    829010.957   6806893.688
10 0 59717  35622.000000  0    1017296.229     49532.343   6801659.150
10 0 59717  35742.000000  0    1475322.137   -739102.666   6676900.557
10 0 59717  35862.000000  0    1893848.362  -1522510.116   6434795.091
10 0 59717  35982.000000  0    2265781.627  -2286258.375   6079571.563
10 0 59717  36102.000000  0    2585086.239  -3016134.944   5617441.838
10 0 59717  36222.000000  0    2846884.128  -3698413.265   5056497.457
10 0 59717  36342.000000  0    3047530.812  -4320114.400   4406573.573
10 0 59717  36462.000000  0    3184667.383  -4869260.010   3679081.595
10 0 59717  36582.000000  0    3257245.870  -5335109.936   2886810.682
10 0 59717  36702.000000  0    3265527.828  -5708379.644   2043702.792
10 0 59717  36822.000000  0    3211054.816  -5981431.774   1164603.823
10 0 59717  36942.000000  0    3096592.598  -6148435.945    264996.785
10 0 59717  37062.000000  0    2926050.959  -6205494.893   -639277.335
10 0 59717  37182.000000  0    2704379.001  -6150732.963  -1532308.806
10 0 59717  37302.000000  0    2437438.676  -5984340.960  -2398407.565
10 0 59717  37422.000000  0    2131862.009  -5708581.411  -3222385.552
10 0 59717  37542.000000  0    1794892.826  -5327751.671  -3989828.594
10 0 59717  37662.000000  0    1434219.552  -4848105.032  -4687348.125
10 0 59717  37782.000000  0    1057804.619  -4277736.049  -5302809.981
10 0 59717  37902.000000  0     673712.955  -3626433.612  -5825538.137
10 0 59717  38022.000000  0     289943.172  -2905504.016  -6246490.075
10 0 59717  38142.000000  0     -85734.850  -2127568.886  -6558401.599
10 0 59717  38262.000000  0    -445932.831  -1306342.023  -6755900.925
10 0 59717  38382.000000  0    -783784.585   -456389.011  -6835591.980
10 0 59717  38502.000000  0   -1093072.559    407127.390  -6796106.081
10 0 59717  38622.000000  0   -1368339.315   1268710.880  -6638121.863
10 0 59717  38742.000000  0   -1604981.512   2112802.560  -6364354.781
10 0 59717  38862.000000  0   -1799325.451   2924054.654  -5979516.146
10 0 59717  38982.000000  0   -1948684.298   3687605.922  -5490241.755
10 0 59717  39102.000000  0   -2051394.680   4389352.720  -4904988.348
10 0 59717  39222.000000  0   -2106833.164   5016212.718  -4233899.264
10 0 59717  39342.000000  0   -2115411.179   5556374.959  -3488638.028
10 0 59717  39462.000000  0   -2078547.767   5999530.059  -2682193.569
10 0 59717  39582.000000  0   -1998620.850   6337077.376  -1828659.923
10 0 59717  39702.000000  0   -1878898.490   6562303.284   -942991.010
10 0 59717  39822.000000  0   -1723450.605   6670524.088    -40737.167
10 0 59717  39942.000000  0   -1537043.213   6659193.166    862232.317
10 0 59717  40062.000000  0   -1325017.543   6527965.138   1750019.300
10 0 59717  40182.000000  0   -1093156.347   6278711.159   2606987.369
10 0 59717  40302.000000  0    -847542.022   5915490.293   3418044.507
10 0 59717  40422.000000  0    -594410.492   5444478.847   4168914.381
10 0 59717  40542.000000  0    -340004.607   4873858.925   4846393.092
10 0 59717  40662.000000  0     -90428.521   4213663.491   5438583.615
10 0 59717  40782.000000  0     148491.340   3475590.900   5935099.866
10 0 59717  40902.000000  0     371335.168   2672789.690   6327246.235
10 0 59717  41022.000000  0     573207.151   1819617.018   6608163.657
10 0 59717  41142.000000  0     749838.829    931377.611   6772943.865
10 0 59717  41262.000000  0     897676.327     24046.897   6818709.205
10 0 59717  41382.000000  0    1013950.307   -886015.185   6744659.924
10 0 59717  41502.000000  0    1096727.432  -1782359.006   6552088.336
10 0 59717  41622.000000  0    1144942.627  -2648742.305   6244357.983
10 0 59717  41742.000000  0    1158411.575  -3469426.031   5826848.777
10 0 59717  41862.000000  0    1137822.469  -4229462.738   5306866.551
10 0 59717  41982.000000  0    1084709.299  -4914971.384   4693520.570
10 0 59717  42102.000000  0    1001406.029  -5513397.129   3997570.938
10 0 59717  42222.000000  0     890982.194  -6013751.446   3231243.978
10 0 59717  42342.000000  0     757161.419  -6406823.940   2408017.921
10 0 59717  42462.000000  0     604223.604  -6685361.199   1542384.311
10 0 59717  42582.000000  0     436893.984  -6844209.026    649589.266
10 0 59717  42702.000000  0     260221.611  -6880415.814   -254642.326
10 0 59717  42822.000000  0      79449.365  -6793289.013  -1154394.717
10 0 59717  42942.000000  0    -100119.157  -6584404.224  -2033850.632
10 0 59717  43062.000000  0    -273252.984  -6257569.877  -2877575.903
10 0 59717  43182.000000  0    -434924.412  -5818748.801  -3670795.252
10 0 59717  43302.000000  0    -580433.877  -5275937.559  -4399653.530
10 0 59717  43422.000000  0    -705525.568  -4639007.007  -5051455.460
10 0 59717  43542.000000  0    -806491.279  -3919510.929  -5614880.368
10 0 59717  43662.000000  0    -880260.227  -3130466.691  -6080169.962
10 0 59717  43782.000000  0    -924473.161  -2286112.980  -6439286.695
10 0 59717  43902.000000  0    -937539.741  -1401649.598  -6686040.916
10 0 59717  44022.000000  0    -918678.586   -492965.132  -6816186.841
10 0 59717  44142.000000  0    -867939.175    423644.512  -6827487.806
10 0 59717  44262.000000  0    -786204.853   1331761.446  -6719749.318
10 0 59717  44382.000000  0    -675177.887   2215131.993  -6494822.031
10 0 59717  44502.000000  0    -537346.643   3057950.158  -6156573.989
10 0 59717  44622.000000  0    -375934.460   3845136.444  -5710832.698
10 0 59717  44742.000000  0    -194831.026   4562606.734  -5165294.464
10 0 59717  44862.000000  0       1492.162   5197526.488  -4529403.262
10 0 59717  44982.000000  0     208081.033   5738547.471  -3814198.371
10 0 59717  45102.000000  0     419611.532   6176020.356  -3032131.572
10 0 59717  45222.000000  0     630513.244   6502178.540  -2196856.987
10 0 59717  45342.000000  0     835101.517   6711289.299  -1322995.649
10 0 59717  45462.000000  0    1027715.029   6799766.896   -425878.225
10 0 59717  45582.000000  0    1202855.494   6766244.060    478728.875
10 0 59717  45702.000000  0    1355325.664   6611598.358   1374908.177
10 0 59717  45822.000000  0    1480361.120   6338933.713   2246879.040
10 0 59717  45942.000000  0    1573753.359   5953518.396   3079283.644
10 0 59717  46062.000000  0    1631961.531   5462680.112   3857465.245
10 0 59717  46182.000000  0    1652209.059   4875659.252   4567732.564
10 0 59717  46302.000000  0    1632564.014   4203425.290   5197604.781
10 0 59717  46422.000000  0    1571998.334   3458459.463   5736029.790
10 0 59717  46542.000000  0    1470428.208   2654515.494   6173572.645
10 0 59717  46662.000000  0    1328733.623   1806359.374   6502576.735
10 0 59717  46782.000000  0    1148756.850    929492.799   6717292.106
10 0 59717  46902.000000  0     933279.991     39867.192   6813968.986
10 0 59717  47022.000000  0     685982.207   -846405.154   6790919.351
10 0 59717  47142.000000  0     411376.688  -1713342.948   6648546.066
10 0 59717  47262.000000  0     114728.143  -2545384.059   6389336.223
10 0 59717  47382.000000  0    -198047.725  -3327666.132   6017820.128
10 0 59717  47502.000000  0    -520499.888  -4046293.200   5540494.149
10 0 59717  47622.000000  0    -845771.288  -4688583.760   4965713.181
10 0 59717  47742.000000  0   -1166741.022  -5243300.968   4303553.391
10 0 59717  47862.000000  0   -1476177.278  -5700859.750   3565640.633
10 0 59717  47982.000000  0   -1766896.002  -6053502.085   2764947.340
10 0 59717  48102.000000  0   -2031922.741  -6295437.246   1915564.173
10 0 59717  48222.000000  0   -2264653.968  -6422944.554   1032448.471
10 0 59717  48342.000000  0   -2459012.047  -6434434.721    131154.130
10 0 59717  48462.000000  0   -2609590.814  -6330468.601   -772450.556
10 0 59717  48582.000000  0   -2711788.187  -6113732.384  -1662471.118
10 0 59717  48702.000000  0   -2761922.741  -5788970.033  -2523274.730
10 0 59717  48822.000000  0   -2757331.094  -5362874.929  -3339771.670
99
